DUCHIFAT-1              
1 40021U 14033M   26179.97276446  .00117244  00000+0  10875-2 0  9999
2 40021  98.0456 240.8096 0000645 103.8669 256.2662 15.67092926657596
NANOSATC-BR1            
1 40024U 14033Q   26179.63845997  .00016168  00000+0  52837-3 0  9996
2 40024  98.0715 213.0430 0005155 135.6679 224.4974 15.31817768655733
QB50P1                  
1 40025U 14033R   26179.94666857  .00007280  00000+0  35692-3 0  9992
2 40025  98.0958 191.9181 0009054 174.0435 186.0906 15.18434109654814
DTUSAT-2                
1 40030U 14033W   26179.92774396  .00006513  00000+0  35091-3 0  9995
2 40030  98.0861 178.4012 0007861 181.7702 178.3502 15.15162556654460
QB50P2                  
1 40032U 14033Y   26179.92091746  .00006503  00000+0  34883-3 0  9995
2 40032  98.0748 177.5324 0009015 128.4795 231.7245 15.15307275654440
PERSEUS-M1              
1 40039U 14033AF  26179.81088167  .00001539  00000+0  14371-3 0  9997
2 40039  97.9649 124.1337 0009870 257.6288 102.3828 14.95670765652372
POLYITAN-1              
1 40042U 14033AJ  26179.79805317  .00018322  00000+0  56432-3 0  9994
2 40042  98.0938 207.1603 0008840 109.6979 250.5216 15.33660497655370
TIGRISAT                
1 40043U 14033AK  26179.90612789  .00001746  00000+0  20553-3 0  9994
2 40043  97.7845 329.6501 0049978  37.6049 322.8644 14.85202555647367
CANX-4                  
1 40055U 14034C   26179.90560983  .00000887  00000+0  12093-3 0  9991
2 40055  98.3107  55.6481 0012268 339.5149  20.5569 14.81284612646264
CANX-5                  
1 40056U 14034D   26179.63371117  .00000890  00000+0  12131-3 0  9998
2 40056  98.3110  55.4105 0012297 340.6401  19.4342 14.81301414637037
GONETS-M 10             
1 40063U 14036C   26179.90297755  .00000003  00000+0 -53173-4 0  9992
2 40063  82.5118 300.3967 0022957 116.1558 244.1886 12.42945946543708
METEOR-M 2              
1 40069U 14037A   26179.97111475  .00000132  00000+0  79448-4 0  9995
2 40069  98.5113 155.2921 0006136  14.2829 345.8521 14.21465095620996
DX1                     
1 40071U 14037C   26179.91206039  .00001641  00000+0  17658-3 0  9993
2 40071  98.3864 142.3252 0005954 227.3593 132.7121 14.90018428647859
UKUBE-1                 
1 40074U 14037F   26179.93529832  .00007298  00000+0  40921-3 0  9990
2 40074  98.4234 184.4427 0003218 113.3260 246.8307 15.13729647650339
GAOFEN-2                
1 40118U 14049A   26179.93308274  .00000458  00000+0  66197-4 0  9992
2 40118  98.0111 244.1287 0006936 184.4646 175.6506 14.80909591640973
BRITE-PL2 (HEWELIUSZ)   
1 40119U 14049B   26179.88828973  .00001483  00000+0  14208-3 0  9994
2 40119  97.9109 291.9792 0015251  72.6737 287.6150 14.94635715643194
CBERS 4                 
1 40336U 14079A   26179.95623284 -.00000046  00000+0 -11949-5 0  9991
2 40336  98.3533 236.4183 0001470  54.7276 305.4047 14.35511624605645
SMAP                    
1 40376U 15003A   26179.97733994  .00000416  00000+0  89553-4 0  9999
2 40376  98.1276 186.9048 0001441  97.4125 262.7241 14.63376429609340
GONETS-M 11             
1 40552U 15020A   26179.92200273  .00000039  00000+0  20920-3 0  9991
2 40552  82.4865  23.6789 0016030 340.3457  19.7003 12.42877792510197
GONETS-M 12             
1 40553U 15020B   26179.97586212  .00000046  00000+0  26143-3 0  9998
2 40553  82.4899  24.7723 0014752 324.8369  35.1736 12.42891598510198
GONETS-M 13             
1 40554U 15020C   26179.94954108  .00000064  00000+0  38980-3 0  9991
2 40554  82.4860  23.4002 0013122 309.5719  50.4201 12.42871351510161
DMC3-FM1                
1 40715U 15032A   26179.92387675  .00001276  00000+0  15284-3 0  9998
2 40715  97.6455  44.6386 0006322  29.3046 330.8524 14.85753810591656
DMC3-FM2                
1 40716U 15032B   26179.94588220  .00000584  00000+0  73177-4 0  9997
2 40716  97.6509  46.2415 0007004  32.4418 327.7227 14.85758040591659
DMC3-FM3                
1 40717U 15032C   26179.90194584  .00000352  00000+0  46510-4 0  9994
2 40717  97.6560  47.9596 0006153  33.4796 326.6808 14.85744993591654
CARBONITE 1 (CBNT-1)    
1 40718U 15032D   26179.91793155  .00002190  00000+0  27132-3 0  9995
2 40718  97.6505 357.4933 0012938 255.1137 104.8645 14.83623191591084
LILACSAT-2              
1 40908U 15049K   26179.94511903  .00017270  00000+0  29005-3 0  9992
2 40908  97.4632 217.2352 0006682 194.3397 165.7667 15.51826866597573
