OBJECT_NAME,OBJECT_ID,EPOCH,MEAN_MOTION,ECCENTRICITY,INCLINATION,RA_OF_ASC_NODE,ARG_OF_PERICENTER,MEAN_ANOMALY,EPHEMERIS_TYPE,CLASSIFICATION_TYPE,NORAD_CAT_ID,ELEMENT_SET_NO,REV_AT_EPOCH,BSTAR,MEAN_MOTION_DOT,MEAN_MOTION_DDOT
DUCHIFAT-1,2014-033M,2026-06-28T23:20:46.849344,15.67092926,.00006459,98.0456,240.8096,103.8669,256.2662,0,U,40021,999,65759,.10874878E-2,.117244E-2,0
NANOSATC-BR1,2014-033Q,2026-06-28T15:19:22.941408,15.31817768,.00051553,98.0715,213.0430,135.6679,224.4974,0,U,40024,999,65573,.52837199E-3,.16168E-3,0
QB50P1,2014-033R,2026-06-28T22:43:12.164448,15.18434109,.00090549,98.0958,191.9181,174.0435,186.0906,0,U,40025,999,65481,.35692126E-3,.728E-4,0
DTUSAT-2,2014-033W,2026-06-28T22:15:57.078144,15.15162556,.00078615,98.0861,178.4012,181.7702,178.3502,0,U,40030,999,65446,.35091486E-3,.6513E-4,0
QB50P2,2014-033Y,2026-06-28T22:06:07.268544,15.15307275,.00090158,98.0748,177.5324,128.4795,231.7245,0,U,40032,999,65444,.34882759E-3,.6503E-4,0
PERSEUS-M1,2014-033AF,2026-06-28T19:27:40.176288,14.95670765,.00098709,97.9649,124.1337,257.6288,102.3828,0,U,40039,999,65237,.14371432E-3,.1539E-4,0
POLYITAN-1,2014-033AJ,2026-06-28T19:09:11.793888,15.33660497,.000884,98.0938,207.1603,109.6979,250.5216,0,U,40042,999,65537,.56431824E-3,.18322E-3,0
TIGRISAT,2014-033AK,2026-06-28T21:44:49.449696,14.85202555,.00499782,97.7845,329.6501,37.6049,322.8644,0,U,40043,999,64736,.20552812E-3,.1746E-4,0
CANX-4,2014-034C,2026-06-28T21:44:04.689312,14.81284612,.00122689,98.3107,55.6481,339.5149,20.5569,0,U,40055,999,64626,.12093198E-3,.887E-5,0
CANX-5,2014-034D,2026-06-28T15:12:32.645088,14.81301414,.00122971,98.3110,55.4105,340.6401,19.4342,0,U,40056,999,63703,.12131473E-3,.89E-5,0
GONETS-M 10,2014-036C,2026-06-28T21:40:17.260320,12.42945946,.00229573,82.5118,300.3967,116.1558,244.1886,0,U,40063,999,54370,-.5317262E-4,.3E-7,0
METEOR-M 2,2014-037A,2026-06-28T23:18:24.314400,14.21465095,.00061369,98.5113,155.2921,14.2829,345.8521,0,U,40069,999,62099,.79447579E-4,.132E-5,0
DX1,2014-037C,2026-06-28T21:53:22.017696,14.90018428,.00059542,98.3864,142.3252,227.3593,132.7121,0,U,40071,999,64785,.17657732E-3,.1641E-4,0
UKUBE-1,2014-037F,2026-06-28T22:26:49.774848,15.13729647,.00032181,98.4234,184.4427,113.3260,246.8307,0,U,40074,999,65033,.40921479E-3,.7298E-4,0
GAOFEN-2,2014-049A,2026-06-28T22:23:38.348736,14.80909591,.00069369,98.0111,244.1287,184.4646,175.6506,0,U,40118,999,64097,.66197495E-4,.458E-5,0
BRITE-PL2 (HEWELIUSZ),2014-049B,2026-06-28T21:19:08.232672,14.94635715,.00152515,97.9109,291.9792,72.6737,287.6150,0,U,40119,999,64319,.14208398E-3,.1483E-4,0
CBERS 4,2014-079A,2026-06-28T22:56:58.517376,14.35511624,.000147,98.3533,236.4183,54.7276,305.4047,0,U,40336,999,60564,-.1194925E-5,-.46E-6,0
SMAP,2015-003A,2026-06-28T23:27:22.170816,14.63376429,.00014416,98.1276,186.9048,97.4125,262.7241,0,U,40376,999,60934,.89553163E-4,.416E-5,0
GONETS-M 11,2015-020A,2026-06-28T22:07:41.035872,12.42877792,.00160306,82.4865,23.6789,340.3457,19.7003,0,U,40552,999,51019,.20919904E-3,.39E-6,0
GONETS-M 12,2015-020B,2026-06-28T23:25:14.487168,12.42891598,.00147525,82.4899,24.7723,324.8369,35.1736,0,U,40553,999,51019,.26142842E-3,.46E-6,0
GONETS-M 13,2015-020C,2026-06-28T22:47:20.349312,12.42871351,.00131223,82.4860,23.4002,309.5719,50.4201,0,U,40554,999,51016,.38979972E-3,.64E-6,0
DMC3-FM1,2015-032A,2026-06-28T22:10:22.951200,14.85753810,.00063224,97.6455,44.6386,29.3046,330.8524,0,U,40715,999,59165,.15283841E-3,.1276E-4,0
DMC3-FM2,2015-032B,2026-06-28T22:42:04.222080,14.85758040,.00070044,97.6509,46.2415,32.4418,327.7227,0,U,40716,999,59165,.73176531E-4,.584E-5,0
DMC3-FM3,2015-032C,2026-06-28T21:38:48.120576,14.85744993,.0006153,97.6560,47.9596,33.4796,326.6808,0,U,40717,999,59165,.46509767E-4,.352E-5,0
CARBONITE 1 (CBNT-1),2015-032D,2026-06-28T22:01:49.285920,14.83623191,.00129382,97.6505,357.4933,255.1137,104.8645,0,U,40718,999,59108,.27132269E-3,.219E-4,0
LILACSAT-2,2015-049K,2026-06-28T22:40:58.284192,15.51826866,.00066822,97.4632,217.2352,194.3397,165.7667,0,U,40908,999,59757,.29004504E-3,.1727E-3,0
